CCSDS_OMM_VERS = 2.0
CREATION_DATE  = 
ORIGINATOR     = 

OBJECT_NAME    = SL-14 R/B
OBJECT_ID      = 1991-042B
CENTER_NAME    = EARTH
REF_FRAME      = TEME
TIME_SYSTEM    = UTC
MEAN_ELEMENT_THEORY = SGP/SGP4

EPOCH          = 2025-11-13T11:21:59.484096
MEAN_MOTION    = 14.81700318
ECCENTRICITY   = .0015493
INCLINATION    = 82.4921
RA_OF_ASC_NODE = 329.1715
ARG_OF_PERICENTER = 262.4437
MEAN_ANOMALY   = 97.5017

EPHEMERIS_TYPE = 0
CLASSIFICATION_TYPE = U
NORAD_CAT_ID   = 21423
ELEMENT_SET_NO = 999
REV_AT_EPOCH   = 83586
BSTAR          = .12045E-3
MEAN_MOTION_DOT = .973E-5
MEAN_MOTION_DDOT = 0

CCSDS_OMM_VERS = 2.0
CREATION_DATE  = 
ORIGINATOR     = 

OBJECT_NAME    = ERS-1
OBJECT_ID      = 1991-050A
CENTER_NAME    = EARTH
REF_FRAME      = TEME
TIME_SYSTEM    = UTC
MEAN_ELEMENT_THEORY = SGP/SGP4

EPOCH          = 2025-11-13T11:17:52.138176
MEAN_MOTION    = 14.39332259
ECCENTRICITY   = .0031903
INCLINATION    = 98.7924
RA_OF_ASC_NODE = 327.7913
ARG_OF_PERICENTER = 185.1577
MEAN_ANOMALY   = 174.9285

EPHEMERIS_TYPE = 0
CLASSIFICATION_TYPE = U
NORAD_CAT_ID   = 21574
ELEMENT_SET_NO = 999
REV_AT_EPOCH   = 79901
BSTAR          = .27919E-3
MEAN_MOTION_DOT = .826E-5
MEAN_MOTION_DDOT = 0

CCSDS_OMM_VERS = 2.0
CREATION_DATE  = 
ORIGINATOR     = 

OBJECT_NAME    = ARIANE 40 R/B
OBJECT_ID      = 1991-050F
CENTER_NAME    = EARTH
REF_FRAME      = TEME
TIME_SYSTEM    = UTC
MEAN_ELEMENT_THEORY = SGP/SGP4

EPOCH          = 2025-11-13T04:10:23.687328
MEAN_MOTION    = 14.42776722
ECCENTRICITY   = .00042337
INCLINATION    = 98.2210
RA_OF_ASC_NODE = 8.6657
ARG_OF_PERICENTER = 75.2357
MEAN_ANOMALY   = 284.9303

EPHEMERIS_TYPE = 0
CLASSIFICATION_TYPE = U
NORAD_CAT_ID   = 21610
ELEMENT_SET_NO = 999
REV_AT_EPOCH   = 80219
BSTAR          = .29544364E-3
MEAN_MOTION_DOT = .943E-5
MEAN_MOTION_DDOT = 0

CCSDS_OMM_VERS = 2.0
CREATION_DATE  = 
ORIGINATOR     = 

OBJECT_NAME    = INTERCOSMOS 25
OBJECT_ID      = 1991-086A
CENTER_NAME    = EARTH
REF_FRAME      = TEME
TIME_SYSTEM    = UTC
MEAN_ELEMENT_THEORY = SGP/SGP4

EPOCH          = 2025-11-13T09:47:52.584000
MEAN_MOTION    = 12.11598499
ECCENTRICITY   = .148831
INCLINATION    = 82.6078
RA_OF_ASC_NODE = 20.3054
ARG_OF_PERICENTER = 7.6261
MEAN_ANOMALY   = 354.4931

EPHEMERIS_TYPE = 0
CLASSIFICATION_TYPE = U
NORAD_CAT_ID   = 21819
ELEMENT_SET_NO = 999
REV_AT_EPOCH   = 48260
BSTAR          = .60664E-3
MEAN_MOTION_DOT = .3093E-4
MEAN_MOTION_DDOT = 0

CCSDS_OMM_VERS = 2.0
CREATION_DATE  = 
ORIGINATOR     = 

OBJECT_NAME    = SL-8 R/B
OBJECT_ID      = 1992-008B
CENTER_NAME    = EARTH
REF_FRAME      = TEME
TIME_SYSTEM    = UTC
MEAN_ELEMENT_THEORY = SGP/SGP4

EPOCH          = 2025-11-13T14:45:07.481952
MEAN_MOTION    = 13.75950220
ECCENTRICITY   = .0036132
INCLINATION    = 82.9283
RA_OF_ASC_NODE = 354.1108
ARG_OF_PERICENTER = 98.7718
MEAN_ANOMALY   = 73.5810

EPHEMERIS_TYPE = 0
CLASSIFICATION_TYPE = U
NORAD_CAT_ID   = 21876
ELEMENT_SET_NO = 999
REV_AT_EPOCH   = 69345
BSTAR          = .18508E-3
MEAN_MOTION_DOT = .196E-5
MEAN_MOTION_DDOT = 0

CCSDS_OMM_VERS = 2.0
CREATION_DATE  = 
ORIGINATOR     = 

OBJECT_NAME    = SL-8 R/B
OBJECT_ID      = 1992-020B
CENTER_NAME    = EARTH
REF_FRAME      = TEME
TIME_SYSTEM    = UTC
MEAN_ELEMENT_THEORY = SGP/SGP4

EPOCH          = 2025-11-13T13:10:51.882240
MEAN_MOTION    = 13.75521754
ECCENTRICITY   = .0027605
INCLINATION    = 82.9312
RA_OF_ASC_NODE = 239.9914
ARG_OF_PERICENTER = 262.1505
MEAN_ANOMALY   = 271.1608

EPHEMERIS_TYPE = 0
CLASSIFICATION_TYPE = U
NORAD_CAT_ID   = 21938
ELEMENT_SET_NO = 999
REV_AT_EPOCH   = 68516
BSTAR          = .10938E-3
MEAN_MOTION_DOT = .12E-5
MEAN_MOTION_DDOT = 0

CCSDS_OMM_VERS = 2.0
CREATION_DATE  = 
ORIGINATOR     = 

OBJECT_NAME    = USA 81
OBJECT_ID      = 1992-023A
CENTER_NAME    = EARTH
REF_FRAME      = TEME
TIME_SYSTEM    = UTC
MEAN_ELEMENT_THEORY = SGP/SGP4

EPOCH          = 2025-11-13T04:53:26.221344
MEAN_MOTION    = 14.32311753
ECCENTRICITY   = .000261
INCLINATION    = 85.0109
RA_OF_ASC_NODE = 198.6064
ARG_OF_PERICENTER = 75.5011
MEAN_ANOMALY   = 284.6471

EPHEMERIS_TYPE = 0
CLASSIFICATION_TYPE = U
NORAD_CAT_ID   = 21949
ELEMENT_SET_NO = 999
REV_AT_EPOCH   = 7811
BSTAR          = .1548E-3
MEAN_MOTION_DOT = .437E-5
MEAN_MOTION_DDOT = 0

CCSDS_OMM_VERS = 2.0
CREATION_DATE  = 
ORIGINATOR     = 

OBJECT_NAME    = SL-16 R/B
OBJECT_ID      = 1992-076B
CENTER_NAME    = EARTH
REF_FRAME      = TEME
TIME_SYSTEM    = UTC
MEAN_ELEMENT_THEORY = SGP/SGP4

EPOCH          = 2025-11-13T14:52:34.726368
MEAN_MOTION    = 14.16836002
ECCENTRICITY   = .0015291
INCLINATION    = 71.0003
RA_OF_ASC_NODE = 72.8690
ARG_OF_PERICENTER = 272.0406
MEAN_ANOMALY   = 99.0255

EPHEMERIS_TYPE = 0
CLASSIFICATION_TYPE = U
NORAD_CAT_ID   = 22220
ELEMENT_SET_NO = 999
REV_AT_EPOCH   = 70539
BSTAR          = .22583E-4
MEAN_MOTION_DOT = -.3E-7
MEAN_MOTION_DDOT = 0

CCSDS_OMM_VERS = 2.0
CREATION_DATE  = 
ORIGINATOR     = 

OBJECT_NAME    = COSMOS 2221
OBJECT_ID      = 1992-080A
CENTER_NAME    = EARTH
REF_FRAME      = TEME
TIME_SYSTEM    = UTC
MEAN_ELEMENT_THEORY = SGP/SGP4

EPOCH          = 2025-11-13T15:34:33.840192
MEAN_MOTION    = 14.95603224
ECCENTRICITY   = .0013738
INCLINATION    = 82.5069
RA_OF_ASC_NODE = 30.1618
ARG_OF_PERICENTER = 217.4857
MEAN_ANOMALY   = 142.5407

EPHEMERIS_TYPE = 0
CLASSIFICATION_TYPE = U
NORAD_CAT_ID   = 22236
ELEMENT_SET_NO = 999
REV_AT_EPOCH   = 76344
BSTAR          = .5028E-3
MEAN_MOTION_DOT = .5616E-4
MEAN_MOTION_DDOT = 0

